C/2014 L5 (Lemmon),e,122.8537,35.6786,45.4999,3148,0.0000056,0.99802840,0.0000,11/22.5920/2014,2000,g  8.0,4.0
# From MPC103844
C/2014 M1 (PANSTARRS),e,160.2212,234.8002,337.1970,98963,0.0000000,0.99994342,0.0000,08/28.1404/2015,2000,g  9.0,4.0
# From MPC109141
C/2014 M2 (Christensen),e,32.3910,245.2868,40.9242,3318,0.0000052,0.99791259,0.0000,07/21.0281/2014,2000,g  6.0,4.0
# From MPC 90769
C/2014 M3 (Catalina),e,164.9079,80.3877,93.7270,123.0757,0.0007218,0.98013588,0.0000,06/18.0895/2014,2000,g 14.0,4.0
# From MPC 91614
P/2014 M4 (PANSTARRS),e,3.3352,263.2737,147.9566,5.875417,0.0692064,0.59383382,146.0434,10/04.0/2020,2000,g 15.0,4.0
# From MPC103844
P/2014 MG4 (Spacewatch-PANSTARRS),e,9.3713,311.7343,299.0900,5.011823,0.0878437,0.25981679,234.0772,10/04.0/2020,2000,g  9.5,4.0
# From MPC 93586
C/2014 N2 (PANSTARRS),e,133.0312,143.9076,238.1768,6680,0.0000018,0.99967092,0.0000,10/08.1501/2014,2000,g 14.5,4.0
# From MPC103844
C/2014 N3 (NEOWISE),e,61.6726,19.8092,353.4148,1657,0.0000146,0.99766513,0.0000,03/12.9052/2015,2000,g  7.0,4.0
# From MPC 98560
P/2014 O3 (PANSTARRS),e,7.8077,87.6419,204.5642,7.561969,0.0473971,0.38628142,111.7752,10/04.0/2020,2000,g 10.5,4.0
# From MPEC 2020-AA5
C/2014 OE4 (PANSTARRS),h,12/12.7674/2016,81.3226,240.4096,65.8762,1.002942,6.248596,2000,11.0,2.0
# From MPC100578
C/2014 Q1 (PANSTARRS),e,43.0386,9.2073,119.8314,886.4989,0.0000373,0.99964077,0.0000,07/04.8111/2015,2000,g  8.0,4.0
# From MPC115880
C/2014 Q2 (Lovejoy),e,80.2076,95.0388,12.3156,393.5805,0.0001262,0.99672136,0.0000,01/27.7471/2015,2000,g  2.7,10.0
# From MPC 90770
C/2014 QU2 (PANSTARRS),e,124.8247,332.7749,320.2502,214.8558,0.0003130,0.98964146,0.0000,07/07.6113/2014,2000,g 15.0,4.0
# From MPC102952
C/2014 Q3 (Borisov),e,89.9432,63.1554,47.3104,27.71872,0.0067537,0.94045036,14.5156,10/04.0/2020,2000,g -0.5,20.0
# From MPC118840
C/2014 Q6 (PANSTARRS),e,49.8252,326.5017,2.6028,30211,0.0000002,0.99986028,0.0000,01/07.1638/2015,2000,g  9.5,4.0
# From MPC 95211
C/2014 R1 (Borisov),e,9.9067,104.0169,55.8001,170.1509,0.0004441,0.99203513,0.0000,11/16.3584/2014,2000,g  6.5,8.8
# From MPC115880
C/2014 R3 (PANSTARRS),e,90.9159,334.0938,113.4523,10313,0.0000009,0.99929455,0.0000,08/08.8355/2016,2000,g  6.5,4.0
# From MPC 92982
C/2014 R4 (Gibbs),e,42.3741,279.5747,180.6464,662.6579,0.0000578,0.99726157,0.0000,10/19.0770/2014,2000,g 13.0,4.0
# From MPC 91615
P/2014 R5 (Lemmon-PANSTARRS),e,1.0883,126.5569,213.7157,4.056652,0.1206292,0.41350350,277.4809,10/04.0/2020,2000,g 15.0,4.0
# From MPC 95732
C/2014 S1 (PANSTARRS),h,10/27.8352/2013,123.7042,352.6375,288.6557,1.001702,8.124076,2000,7.0,4.0
# From MPC104790
C/2014 S2 (PANSTARRS),e,64.5036,8.1399,87.3179,170.0590,0.0004444,0.98776239,0.0000,12/09.0304/2015,2000,g 10.0,4.0
# From MPC 90770
C/2014 S3 (PANSTARRS),e,169.3239,356.0528,292.9462,83.36535,0.0012949,0.97549964,0.0000,08/10.7800/2014,2000,g 17.0,4.0
# From MPC 91615
C/2014 TG64 (Catalina),e,22.2837,50.2241,294.5924,14.80974,0.0172935,0.78255107,40.1371,10/04.0/2020,2000,g 13.0,4.0
# From MPC 91616
C/2014 U3 (Kowalski),e,152.8884,163.5921,51.1435,786.8961,0.0000447,0.99676757,0.0000,09/03.9945/2014,2000,g 14.5,4.0
# From MPC 91616
P/2014 U4 (PANSTARRS),e,6.4283,11.8994,347.7285,3.508167,0.1499974,0.46523459,340.1263,10/04.0/2020,2000,g 18.0,4.0
# From MPC 95211
P/2014 V1 (PANSTARRS),e,22.5137,166.2029,177.5616,5.481654,0.0767957,0.53406702,159.8253,10/04.0/2020,2000,g 14.0,4.0
# From MPC 93586
P/2014 W1 (PANSTARRS),e,8.8388,246.2459,152.2680,4.461126,0.1046014,0.38865505,237.3530,10/04.0/2020,2000,g 15.5,4.0
# From MPC110493
C/2014 W2 (PANSTARRS),e,82.0534,69.9771,84.9384,572.2060,0.0000720,0.99532759,0.0000,03/08.1160/2016,2000,g  7.5,4.0
# From MPC 98561
C/2014 W3 (PANSTARRS),h,02/26.2129/2014,90.1621,286.4592,158.7493,1.004793,6.048845,2000,8.5,4.0
# From MPC105542
P/2014 W4 (PANSTARRS),e,15.2708,33.3526,67.8846,6.600326,0.0581241,0.35204958,101.1140,10/04.0/2020,2000,g 11.0,4.0
# From MPC 95211
C/2014 W6 (Catalina),h,03/17.5071/2015,53.4682,338.2123,209.9339,1.000944,3.098299,2000,10.5,4.0
# From MPC 92982
C/2014 W7 (Christensen),e,98.0899,151.2618,33.2345,11.38307,0.0256634,0.86925767,54.0086,10/04.0/2020,2000,g 16.0,4.0
# From MPC 91616
C/2014 W8 (PANSTARRS),e,41.9783,224.8168,227.9554,168.2567,0.0004516,0.97018617,0.0000,09/08.6078/2015,2000,g 11.0,4.0
# From MPC 94672
C/2014 W9 (PANSTARRS),e,10.6079,21.3884,167.8772,11.20517,0.0262770,0.85706079,54.1192,10/04.0/2020,2000,g 16.0,4.0
# From MPC115880
C/2014 W10 (PANSTARRS),e,82.8768,43.1118,43.6533,818.9507,0.0000421,0.99075142,0.0000,03/04.3778/2016,2000,g  8.0,4.0
# From MPC107047
C/2014 W11 (PANSTARRS),e,20.6079,294.9230,227.5249,9.530806,0.0334973,0.60753887,67.9526,10/04.0/2020,2000,g 10.0,4.0
# From MPC 93587
P/2014 W12 (Gibbs),e,8.5141,299.2894,36.9128,3.518105,0.1493623,0.52407988,321.4152,10/04.0/2020,2000,g 15.0,4.0
# From MPC 94281
P/2014 X1 (Elenin),e,26.0010,61.5036,33.9905,6.210467,0.0636821,0.70851328,133.9059,10/04.0/2020,2000,g 15.0,4.0
# From MPC 96866
C/2014 XB8 (PANSTARRS),e,149.7996,37.4521,351.2537,581.7492,0.0000702,0.99483427,0.0000,04/03.2632/2015,2000,g 13.5,4.0
# From MPC100579
C/2014 Y1 (PANSTARRS),h,01/16.2288/2016,14.9101,19.5551,182.3310,1.001488,2.253211,2000,9.5,4.0
# From MPC 96279
C/2015 A1 (PANSTARRS),e,80.1693,341.0110,244.9456,20.22266,0.0108379,0.90115502,22.0298,10/04.0/2020,2000,g 14.5,4.0
# From MPC 93587
C/2015 A2 (PANSTARRS),p,08/01.8353/2015,109.1696,208.8369,5.341055,258.5042,2000,10.5,4.0
# From MPC 92275
P/2015 A3 (PANSTARRS),e,172.5288,277.1680,249.2283,7.807440,0.0451795,0.85148143,92.8296,10/04.0/2020,2000,g 20.0,4.0
# From MPC 99270
P/2015 B1 (PANSTARRS),e,18.0284,353.0317,188.8119,9.500260,0.0336590,0.36872854,62.1024,10/04.0/2020,2000,g  8.5,4.0
# From MPC108592
C/2015 B2 (PANSTARRS),e,104.9983,341.8559,284.7166,78830,0.0000000,0.99995725,0.0000,05/05.6887/2016,2000,g  9.5,4.0
# From MPC109141
P/2015 B4 (Lemmon-PANSTARRS),e,1.7600,266.0254,227.4904,8.534300,0.0395323,0.56042534,81.7505,10/04.0/2020,2000,g 11.0,4.0
# From MPC101096
P/2015 C1 (TOTAS-Gibbs),e,13.8885,348.8259,178.3510,6.586657,0.0583051,0.56025694,115.7878,10/04.0/2020,2000,g 12.5,4.0
# From MPC 95211
C/2015 C2 (SWAN),e,94.6044,49.4256,333.9282,338.3810,0.0001583,0.99791757,0.0000,03/03.7867/2015,2000,g 14.0,4.0
# From MPC 98561
C/2015 D2 (PANSTARRS),e,31.9289,162.8643,292.3744,12.80675,0.0215053,0.55975536,55.1694,10/04.0/2020,2000,g  8.0,4.0
# From MPC119995
C/2015 D3 (PANSTARRS),h,05/02.7618/2016,128.5475,157.0537,2.9744,1.003771,8.146092,2000,5.5,4.0
# From MPC 96279
C/2015 D4 (Borisov),e,77.3868,305.4541,314.8481,78.73318,0.0014108,0.98898534,0.0000,10/27.9032/2014,2000,g 12.0,4.0
# From MPC109141
P/2015 D5 (Kowalski),e,20.4974,74.0600,39.9245,8.973827,0.0366638,0.48882883,87.1845,10/04.0/2020,2000,g  9.0,4.0
# From MPC 96866
P/2015 D6 (Lemmon-PANSTARRS),e,20.2038,46.0595,125.2102,7.147595,0.0515780,0.36214252,98.9362,10/04.0/2020,2000,g 10.5,4.0
# From MPC112390
C/2015 ER61 (PANSTARRS),e,6.3408,235.1724,68.2795,483.7313,0.0000926,0.99784481,0.0000,05/10.4265/2017,2000,g 11.0,2.0
# From MPEC 2018-BF5
C/2015 E61-B (PANSTARRS),e,6.3424,235.2075,68.3687,1315,0.0000207,0.99920577,0.0000,05/10.4040/2017,2000,g 13.5,2.0
# From MPC109142
P/2015 F1 (PANSTARRS),e,2.8025,40.3956,187.4459,3.523283,0.1490331,0.27812346,302.1023,10/04.0/2020,2000,g 12.5,4.0
# From MPC 98561
C/2015 F2 (Polonia),e,28.7143,262.4709,352.2567,39.25340,0.0040076,0.96898094,7.9542,10/04.0/2020,2000,g 16.5,4.0
# From MPC 96279
C/2015 F3 (SWAN),e,73.6316,31.7708,57.4212,178.1595,0.0004145,0.99531782,0.0000,03/07.2866/2015,2000,g 14.5,4.0
# From MPC115880
C/2015 F4 (Jacques),e,48.8016,285.9193,36.3344,118.5034,0.0007640,0.98616063,0.0000,08/12.2605/2015,2000,g 11.0,4.0
# From MPC 95212
C/2015 F5 (SWAN-Xingming),e,149.3755,287.7498,13.4829,15.59010,0.0160115,0.97761225,0.0000,03/28.9188/2015,2000,g 15.5,4.0
# From MPC102096
C/2015 GX (PANSTARRS),e,90.2498,235.4510,108.7898,16.15972,0.0151724,0.87871303,28.2845,10/04.0/2020,2000,g 14.0,4.0
# From MPC109142
C/2015 G2 (MASTER),h,05/25.2895/2015,147.6626,110.2476,257.6146,1.000643,0.777092,2000,11.0,4.0
# From MPC 98561
C/2015 H1 (Bressi),e,140.6945,325.8397,21.9729,32.12524,0.0054130,0.93957856,10.9223,10/04.0/2020,2000,g 13.5,4.0
# From MPC117068
C/2015 H2 (PANSTARRS),h,09/14.2757/2016,33.6587,350.6821,288.0782,1.005645,4.976515,2000,7.5,4.0
# From MPEC 2020-SI8
P/2015 HG16 (PANSTARRS),e,18.8167,58.9905,47.3184,4.749231,0.0952290,0.35051021,218.4320,10/04.0/2020,2000,g 12.5,4.0
# From MPC100579
C/2015 J1 (PANSTARRS),h,06/28.8072/2014,95.0334,220.0528,315.6435,1.000268,6.040273,2000,8.5,4.0
# From MPC101096
C/2015 J2 (PANSTARRS),e,17.2688,56.7715,203.9260,296.7703,0.0001928,0.98538800,0.0000,09/09.8803/2015,2000,g 10.0,4.0
# From MPEC 2020-SI8
C/2016 M1 (PANSTARRS),e,90.9938,92.2080,209.8913,5714,0.0000023,0.99961280,0.0000,08/10.3534/2018,2000,g  5.0,4.0
# From MPEC 2020-SI8
C/2016 Q2 (PANSTARRS),e,109.3887,322.2978,84.5117,165864,0.0000000,0.99995730,0.0000,05/11.6693/2021,2000,g  6.0,4.0
# From MPEC 2020-SI8
C/2016 R2 (PANSTARRS),e,58.2295,80.5653,33.1701,533.1145,0.0000801,0.99511797,0.0000,05/09.2156/2018,2000,g  7.0,4.0
# From MPEC 2020-SI8
C/2017 B3 (LINEAR),h,02/02.6202/2019,54.1716,2.1797,284.7888,1.001776,3.922567,2000,6.0,4.0
# From MPC 95733
P/2015 J3 (NEOWISE),e,8.1310,111.3514,129.4469,3.348516,0.1608517,0.55440848,327.8068,10/04.0/2020,2000,g 16.5,4.0
# From MPC101096
C/2015 K1 (MASTER),e,29.3143,5.0171,280.4145,198.4914,0.0003524,0.98710062,0.0000,10/14.8455/2014,2000,g  9.0,4.0
# From MPC 95733
C/2015 K2 (PANSTARRS),e,29.0526,223.7414,15.9678,308.9036,0.0001815,0.99525324,0.0000,06/08.6194/2015,2000,g 20.0,4.0
# From MPC 95733
C/2015 K4 (PANSTARRS),h,05/01.8404/2015,80.2352,250.7591,357.7646,1.001045,2.020174,2000,15.0,4.0
# From MPC 95213
P/2015 K5 (PANSTARRS),e,39.9451,134.1785,106.3217,6.719623,0.0565831,0.55370864,110.1704,10/04.0/2020,2000,g 13.5,4.0
# From MPC111767
